IRIDIUM 63              
1 25286U 98021B   25299.26667790  .00000646  00000+0  21268-3 0  9990
2 25286  86.4025  27.1224 0002018  99.5384 260.6041 14.36676547442667
IRIDIUM 69              
1 25319U 98026A   25299.22350492  .00000949  00000+0  28850-3 0  9996
2 25319  86.4004  40.0133 0001445  11.8146 348.3088 14.41132471441933
IRIDIUM 71              
1 25320U 98026B   25299.28364261  .00000501  00000+0  14896-3 0  9992
2 25320  86.4009  34.6647 0003287  54.0977 306.0527 14.41272670442471
IRIDIUM 73              
1 25344U 98032C   25299.22575953  .00000777  00000+0  18785-3 0  9997
2 25344  86.4444 351.1795 0001572  93.8112 266.3274 14.51898962449572
IRIDIUM 82              
1 25467U 98051A   25299.27283550  .00049134  00000+0  10716-2 0  9993
2 25467  86.3648  44.8937 0070487 156.2185 204.2355 15.41363502444070
